OBJECT_NAME,OBJECT_ID,EPOCH,MEAN_MOTION,ECCENTRICITY,INCLINATION,RA_OF_ASC_NODE,ARG_OF_PERICENTER,MEAN_ANOMALY,EPHEMERIS_TYPE,CLASSIFICATION_TYPE,NORAD_CAT_ID,ELEMENT_SET_NO,REV_AT_EPOCH,BSTAR,MEAN_MOTION_DOT,MEAN_MOTION_DDOT
STARLINK-1548,2020-055AD,2026-03-09T12:00:01.999296,15.30165066,.0001263,53.1586,114.7947,87.1327,321.8902,0,U,46054,999,582,.12285E-2,.36163E-3,0
ASRTU-1 (AO-123),2024-199AY,2026-03-09T13:13:07.733280,15.34061144,.0012816,97.3152,298.1379,310.8975,49.1157,0,U,61781,999,11864,.30873E-3,.10125E-3,0
